{"type":"FeatureCollection","features":[
{"type":"Feature","properties":{"name":"Adana","plate":1},"geometry":{"type":"Polygon","coordinates":[[[35.2,37.3],[35.8,36.8],[36.4,36.5],[36.9,36.6],[37.1,37.0],[36.8,37.4],[36.2,37.8],[35.7,37.6],[35.2,37.3]]]}},
{"type":"Feature","properties":{"name":"Adıyaman","plate":2},"geometry":{"type":"Polygon","coordinates":[[[37.7,37.7],[38.3,37.5],[38.7,37.7],[38.8,38.1],[38.3,38.4],[37.8,38.3],[37.5,38.0],[37.7,37.7]]]}},
{"type":"Feature","properties":{"name":"Afyonkarahisar","plate":3},"geometry":{"type":"Polygon","coordinates":[[[29.9,38.2],[30.7,38.0],[31.3,38.1],[31.5,38.5],[31.2,38.9],[30.5,39.1],[29.8,39.0],[29.5,38.6],[29.9,38.2]]]}},
{"type":"Feature","properties":{"name":"Ağrı","plate":4},"geometry":{"type":"Polygon","coordinates":[[[42.5,39.4],[43.5,39.5],[44.0,39.7],[44.1,40.1],[43.5,40.3],[42.7,40.2],[42.2,39.9],[42.5,39.4]]]}},
{"type":"Feature","properties":{"name":"Amasya","plate":5},"geometry":{"type":"Polygon","coordinates":[[[35.5,40.6],[36.2,40.5],[36.7,40.7],[36.8,41.0],[36.4,41.2],[35.8,41.1],[35.4,40.9],[35.5,40.6]]]}},
{"type":"Feature","properties":{"name":"Ankara","plate":6},"geometry":{"type":"Polygon","coordinates":[[[31.5,39.5],[32.8,39.3],[33.2,39.5],[33.1,40.0],[32.5,40.3],[31.7,40.2],[31.3,39.9],[31.5,39.5]]]}},
{"type":"Feature","properties":{"name":"Antalya","plate":7},"geometry":{"type":"Polygon","coordinates":[[[29.6,36.2],[30.5,36.0],[31.5,36.2],[32.1,36.5],[31.8,37.0],[31.0,37.3],[30.0,37.0],[29.6,36.5],[29.6,36.2]]]}},
{"type":"Feature","properties":{"name":"Artvin","plate":8},"geometry":{"type":"Polygon","coordinates":[[[41.0,40.9],[41.8,40.8],[42.3,41.1],[42.4,41.5],[41.8,41.7],[41.2,41.5],[40.9,41.2],[41.0,40.9]]]}},
{"type":"Feature","properties":{"name":"Aydın","plate":9},"geometry":{"type":"Polygon","coordinates":[[[27.3,37.4],[28.2,37.3],[29.0,37.5],[29.1,37.9],[28.7,38.2],[27.8,38.1],[27.2,37.8],[27.3,37.4]]]}},
{"type":"Feature","properties":{"name":"Balıkesir","plate":10},"geometry":{"type":"Polygon","coordinates":[[[26.8,39.2],[27.8,39.0],[28.5,39.2],[28.6,39.8],[27.9,40.2],[27.0,40.0],[26.6,39.6],[26.8,39.2]]]}},
{"type":"Feature","properties":{"name":"Bilecik","plate":11},"geometry":{"type":"Polygon","coordinates":[[[29.8,39.8],[30.2,39.7],[30.5,39.9],[30.4,40.2],[30.0,40.3],[29.7,40.1],[29.8,39.8]]]}},
{"type":"Feature","properties":{"name":"Bingöl","plate":12},"geometry":{"type":"Polygon","coordinates":[[[40.1,38.6],[40.8,38.5],[41.3,38.7],[41.4,39.1],[40.9,39.4],[40.3,39.3],[40.0,38.9],[40.1,38.6]]]}},
{"type":"Feature","properties":{"name":"Bitlis","plate":13},"geometry":{"type":"Polygon","coordinates":[[[41.8,38.0],[42.6,37.9],[43.1,38.2],[43.2,38.7],[42.7,39.0],[42.0,38.8],[41.7,38.4],[41.8,38.0]]]}},
{"type":"Feature","properties":{"name":"Bolu","plate":14},"geometry":{"type":"Polygon","coordinates":[[[31.3,40.4],[32.1,40.3],[32.5,40.5],[32.4,40.9],[31.8,41.1],[31.2,40.8],[31.3,40.4]]]}},
{"type":"Feature","properties":{"name":"Burdur","plate":15},"geometry":{"type":"Polygon","coordinates":[[[29.7,37.2],[30.5,37.1],[31.0,37.4],[30.9,37.8],[30.2,38.1],[29.6,37.7],[29.7,37.2]]]}},
{"type":"Feature","properties":{"name":"Bursa","plate":16},"geometry":{"type":"Polygon","coordinates":[[[28.5,39.8],[29.4,39.7],[30.0,40.0],[30.0,40.4],[29.3,40.6],[28.5,40.3],[28.2,40.0],[28.5,39.8]]]}},
{"type":"Feature","properties":{"name":"Çanakkale","plate":17},"geometry":{"type":"Polygon","coordinates":[[[26.0,39.5],[27.0,39.4],[27.5,39.7],[27.4,40.2],[26.6,40.4],[26.0,40.1],[26.0,39.5]]]}},
{"type":"Feature","properties":{"name":"Çankırı","plate":18},"geometry":{"type":"Polygon","coordinates":[[[32.5,40.3],[33.2,40.2],[33.8,40.4],[33.7,40.8],[33.1,41.0],[32.4,40.8],[32.5,40.3]]]}},
{"type":"Feature","properties":{"name":"Çorum","plate":19},"geometry":{"type":"Polygon","coordinates":[[[33.8,40.4],[34.8,40.3],[35.3,40.5],[35.2,40.9],[34.6,41.1],[33.8,40.9],[33.8,40.4]]]}},
{"type":"Feature","properties":{"name":"Denizli","plate":20},"geometry":{"type":"Polygon","coordinates":[[[28.7,37.2],[29.6,37.1],[30.2,37.4],[30.1,37.9],[29.4,38.1],[28.6,37.8],[28.7,37.2]]]}},
{"type":"Feature","properties":{"name":"Diyarbakır","plate":21},"geometry":{"type":"Polygon","coordinates":[[[38.8,37.5],[40.0,37.4],[40.5,37.7],[40.4,38.3],[39.6,38.6],[38.7,38.4],[38.5,37.9],[38.8,37.5]]]}},
{"type":"Feature","properties":{"name":"Edirne","plate":22},"geometry":{"type":"Polygon","coordinates":[[[26.1,41.3],[26.8,41.2],[27.3,41.5],[27.2,41.9],[26.5,42.0],[26.0,41.7],[26.1,41.3]]]}},
{"type":"Feature","properties":{"name":"Elazığ","plate":23},"geometry":{"type":"Polygon","coordinates":[[[38.3,38.2],[39.2,38.1],[39.8,38.4],[39.7,38.8],[39.0,39.0],[38.2,38.8],[38.3,38.2]]]}},
{"type":"Feature","properties":{"name":"Erzincan","plate":24},"geometry":{"type":"Polygon","coordinates":[[[38.5,39.3],[39.4,39.2],[40.0,39.5],[40.0,39.9],[39.3,40.1],[38.4,39.9],[38.5,39.3]]]}},
{"type":"Feature","properties":{"name":"Erzurum","plate":25},"geometry":{"type":"Polygon","coordinates":[[[40.0,39.5],[41.2,39.4],[42.0,39.7],[42.1,40.2],[41.3,40.5],[40.2,40.3],[40.0,39.5]]]}},
{"type":"Feature","properties":{"name":"Eskişehir","plate":26},"geometry":{"type":"Polygon","coordinates":[[[30.3,39.2],[31.3,39.1],[31.7,39.4],[31.6,39.9],[30.9,40.0],[30.2,39.7],[30.3,39.2]]]}},
{"type":"Feature","properties":{"name":"Gaziantep","plate":27},"geometry":{"type":"Polygon","coordinates":[[[36.6,36.7],[37.5,36.6],[38.1,36.9],[38.0,37.3],[37.3,37.5],[36.5,37.2],[36.6,36.7]]]}},
{"type":"Feature","properties":{"name":"Giresun","plate":28},"geometry":{"type":"Polygon","coordinates":[[[37.5,40.3],[38.5,40.2],[39.0,40.5],[38.9,40.9],[38.2,41.1],[37.4,40.8],[37.5,40.3]]]}},
{"type":"Feature","properties":{"name":"Gümüşhane","plate":29},"geometry":{"type":"Polygon","coordinates":[[[39.0,40.2],[39.8,40.1],[40.2,40.4],[40.1,40.8],[39.5,40.9],[39.0,40.6],[39.0,40.2]]]}},
{"type":"Feature","properties":{"name":"Hakkari","plate":30},"geometry":{"type":"Polygon","coordinates":[[[43.3,37.1],[44.0,37.0],[44.5,37.4],[44.4,37.8],[43.8,37.9],[43.2,37.6],[43.3,37.1]]]}},
{"type":"Feature","properties":{"name":"Hatay","plate":31},"geometry":{"type":"Polygon","coordinates":[[[35.9,36.2],[36.6,36.1],[37.1,36.4],[36.8,36.9],[36.1,37.1],[35.7,36.7],[35.9,36.2]]]}},
{"type":"Feature","properties":{"name":"Isparta","plate":32},"geometry":{"type":"Polygon","coordinates":[[[30.2,37.5],[31.0,37.4],[31.5,37.7],[31.4,38.2],[30.7,38.4],[30.1,38.1],[30.2,37.5]]]}},
{"type":"Feature","properties":{"name":"Mersin","plate":33},"geometry":{"type":"Polygon","coordinates":[[[33.3,36.4],[34.5,36.3],[35.5,36.5],[35.8,37.1],[35.0,37.5],[33.8,37.3],[33.0,36.9],[33.3,36.4]]]}},
{"type":"Feature","properties":{"name":"İstanbul","plate":34},"geometry":{"type":"Polygon","coordinates":[[[28.5,40.9],[29.3,40.8],[29.9,41.0],[29.7,41.3],[29.0,41.4],[28.4,41.2],[28.5,40.9]]]}},
{"type":"Feature","properties":{"name":"İzmir","plate":35},"geometry":{"type":"Polygon","coordinates":[[[26.5,37.8],[27.5,37.6],[28.2,37.9],[28.2,38.5],[27.4,38.7],[26.5,38.3],[26.5,37.8]]]}},
{"type":"Feature","properties":{"name":"Kars","plate":36},"geometry":{"type":"Polygon","coordinates":[[[42.5,40.2],[43.5,40.1],[44.1,40.4],[44.0,40.8],[43.3,41.0],[42.4,40.7],[42.5,40.2]]]}},
{"type":"Feature","properties":{"name":"Kastamonu","plate":37},"geometry":{"type":"Polygon","coordinates":[[[33.0,41.0],[34.0,40.9],[34.5,41.1],[34.4,41.6],[33.7,41.8],[33.0,41.5],[33.0,41.0]]]}},
{"type":"Feature","properties":{"name":"Kayseri","plate":38},"geometry":{"type":"Polygon","coordinates":[[[35.2,38.2],[36.3,38.1],[37.0,38.4],[36.9,39.0],[36.1,39.2],[35.2,38.9],[35.2,38.2]]]}},
{"type":"Feature","properties":{"name":"Kırklareli","plate":39},"geometry":{"type":"Polygon","coordinates":[[[27.0,41.6],[27.7,41.5],[28.2,41.8],[28.0,42.1],[27.3,42.2],[26.9,41.9],[27.0,41.6]]]}},
{"type":"Feature","properties":{"name":"Kırşehir","plate":40},"geometry":{"type":"Polygon","coordinates":[[[33.7,39.0],[34.5,38.9],[35.0,39.2],[34.9,39.7],[34.2,39.9],[33.6,39.6],[33.7,39.0]]]}},
{"type":"Feature","properties":{"name":"Kocaeli","plate":41},"geometry":{"type":"Polygon","coordinates":[[[29.5,40.4],[30.1,40.3],[30.4,40.5],[30.2,40.9],[29.7,41.0],[29.4,40.7],[29.5,40.4]]]}},
{"type":"Feature","properties":{"name":"Konya","plate":42},"geometry":{"type":"Polygon","coordinates":[[[31.5,37.3],[33.0,37.1],[33.8,37.5],[33.7,38.4],[32.7,38.8],[31.5,38.5],[31.0,37.9],[31.5,37.3]]]}},
{"type":"Feature","properties":{"name":"Kütahya","plate":43},"geometry":{"type":"Polygon","coordinates":[[[29.5,38.8],[30.4,38.7],[31.0,38.9],[30.9,39.4],[30.2,39.6],[29.4,39.3],[29.5,38.8]]]}},
{"type":"Feature","properties":{"name":"Malatya","plate":44},"geometry":{"type":"Polygon","coordinates":[[[37.8,38.1],[38.8,38.0],[39.4,38.3],[39.3,38.8],[38.6,39.0],[37.7,38.8],[37.8,38.1]]]}},
{"type":"Feature","properties":{"name":"Manisa","plate":45},"geometry":{"type":"Polygon","coordinates":[[[27.5,38.5],[28.5,38.3],[29.2,38.6],[29.1,39.2],[28.3,39.4],[27.4,39.0],[27.5,38.5]]]}},
{"type":"Feature","properties":{"name":"Kahramanmaraş","plate":46},"geometry":{"type":"Polygon","coordinates":[[[36.4,37.3],[37.4,37.2],[38.0,37.5],[37.9,38.0],[37.2,38.3],[36.3,38.0],[36.4,37.3]]]}},
{"type":"Feature","properties":{"name":"Mardin","plate":47},"geometry":{"type":"Polygon","coordinates":[[[40.5,37.1],[41.7,36.9],[42.5,37.2],[42.4,37.7],[41.5,37.9],[40.4,37.7],[40.5,37.1]]]}},
{"type":"Feature","properties":{"name":"Muğla","plate":48},"geometry":{"type":"Polygon","coordinates":[[[27.8,36.5],[29.2,36.3],[30.0,36.6],[29.8,37.2],[28.8,37.5],[27.6,37.1],[27.8,36.5]]]}},
{"type":"Feature","properties":{"name":"Muş","plate":49},"geometry":{"type":"Polygon","coordinates":[[[41.1,38.5],[42.0,38.4],[42.5,38.7],[42.4,39.1],[41.7,39.3],[41.0,39.1],[41.1,38.5]]]}},
{"type":"Feature","properties":{"name":"Nevşehir","plate":50},"geometry":{"type":"Polygon","coordinates":[[[34.3,38.4],[35.1,38.3],[35.5,38.6],[35.4,39.0],[34.7,39.2],[34.2,38.9],[34.3,38.4]]]}},
{"type":"Feature","properties":{"name":"Niğde","plate":51},"geometry":{"type":"Polygon","coordinates":[[[34.2,37.7],[35.2,37.6],[35.8,37.9],[35.6,38.4],[34.8,38.6],[34.1,38.3],[34.2,37.7]]]}},
{"type":"Feature","properties":{"name":"Ordu","plate":52},"geometry":{"type":"Polygon","coordinates":[[[36.7,40.4],[37.7,40.3],[38.2,40.6],[38.1,41.0],[37.3,41.2],[36.6,40.9],[36.7,40.4]]]}},
{"type":"Feature","properties":{"name":"Rize","plate":53},"geometry":{"type":"Polygon","coordinates":[[[40.2,40.6],[41.0,40.5],[41.5,40.8],[41.4,41.2],[40.7,41.4],[40.1,41.1],[40.2,40.6]]]}},
{"type":"Feature","properties":{"name":"Sakarya","plate":54},"geometry":{"type":"Polygon","coordinates":[[[30.0,40.4],[30.8,40.3],[31.2,40.5],[31.1,40.9],[30.5,41.0],[30.0,40.7],[30.0,40.4]]]}},
{"type":"Feature","properties":{"name":"Samsun","plate":55},"geometry":{"type":"Polygon","coordinates":[[[35.2,40.7],[36.5,40.6],[37.2,40.9],[37.1,41.3],[36.3,41.5],[35.2,41.2],[35.2,40.7]]]}},
{"type":"Feature","properties":{"name":"Siirt","plate":56},"geometry":{"type":"Polygon","coordinates":[[[41.6,37.5],[42.4,37.4],[42.9,37.7],[42.8,38.2],[42.1,38.4],[41.5,38.2],[41.6,37.5]]]}},
{"type":"Feature","properties":{"name":"Sinop","plate":57},"geometry":{"type":"Polygon","coordinates":[[[34.6,41.0],[35.5,40.9],[36.0,41.1],[35.9,41.5],[35.2,41.7],[34.5,41.4],[34.6,41.0]]]}},
{"type":"Feature","properties":{"name":"Sivas","plate":58},"geometry":{"type":"Polygon","coordinates":[[[36.5,38.8],[38.0,38.7],[38.8,39.0],[38.7,39.7],[37.8,40.0],[36.4,39.7],[36.5,38.8]]]}},
{"type":"Feature","properties":{"name":"Tekirdağ","plate":59},"geometry":{"type":"Polygon","coordinates":[[[26.9,40.7],[27.8,40.6],[28.4,40.8],[28.2,41.2],[27.4,41.3],[26.8,41.0],[26.9,40.7]]]}},
{"type":"Feature","properties":{"name":"Tokat","plate":60},"geometry":{"type":"Polygon","coordinates":[[[35.8,39.8],[36.8,39.7],[37.4,40.0],[37.3,40.5],[36.5,40.7],[35.7,40.4],[35.8,39.8]]]}},
{"type":"Feature","properties":{"name":"Trabzon","plate":61},"geometry":{"type":"Polygon","coordinates":[[[38.9,40.6],[39.8,40.5],[40.4,40.8],[40.3,41.2],[39.6,41.4],[38.8,41.1],[38.9,40.6]]]}},
{"type":"Feature","properties":{"name":"Tunceli","plate":62},"geometry":{"type":"Polygon","coordinates":[[[38.8,38.8],[39.7,38.7],[40.2,39.0],[40.1,39.5],[39.4,39.7],[38.7,39.4],[38.8,38.8]]]}},
{"type":"Feature","properties":{"name":"Şanlıurfa","plate":63},"geometry":{"type":"Polygon","coordinates":[[[37.8,36.8],[39.3,36.7],[40.1,37.0],[40.0,37.5],[39.0,37.8],[37.7,37.6],[37.8,36.8]]]}},
{"type":"Feature","properties":{"name":"Uşak","plate":64},"geometry":{"type":"Polygon","coordinates":[[[28.8,38.4],[29.6,38.3],[30.0,38.5],[29.9,38.9],[29.2,39.1],[28.7,38.8],[28.8,38.4]]]}},
{"type":"Feature","properties":{"name":"Van","plate":65},"geometry":{"type":"Polygon","coordinates":[[[43.2,37.7],[44.5,37.6],[45.0,38.0],[44.9,38.7],[44.0,39.0],[43.1,38.7],[43.2,37.7]]]}},
{"type":"Feature","properties":{"name":"Yozgat","plate":66},"geometry":{"type":"Polygon","coordinates":[[[34.8,39.5],[35.8,39.4],[36.5,39.7],[36.4,40.2],[35.6,40.4],[34.7,40.1],[34.8,39.5]]]}},
{"type":"Feature","properties":{"name":"Zonguldak","plate":67},"geometry":{"type":"Polygon","coordinates":[[[31.3,41.0],[32.1,40.9],[32.5,41.1],[32.3,41.5],[31.7,41.6],[31.2,41.3],[31.3,41.0]]]}},
{"type":"Feature","properties":{"name":"Aksaray","plate":68},"geometry":{"type":"Polygon","coordinates":[[[33.3,37.9],[34.2,37.8],[34.7,38.1],[34.6,38.6],[33.8,38.8],[33.2,38.5],[33.3,37.9]]]}},
{"type":"Feature","properties":{"name":"Bayburt","plate":69},"geometry":{"type":"Polygon","coordinates":[[[39.7,39.9],[40.3,39.8],[40.7,40.1],[40.6,40.5],[40.0,40.7],[39.6,40.3],[39.7,39.9]]]}},
{"type":"Feature","properties":{"name":"Karaman","plate":70},"geometry":{"type":"Polygon","coordinates":[[[32.7,36.9],[33.8,36.8],[34.5,37.1],[34.4,37.6],[33.6,37.9],[32.6,37.6],[32.7,36.9]]]}},
{"type":"Feature","properties":{"name":"Kırıkkale","plate":71},"geometry":{"type":"Polygon","coordinates":[[[33.1,39.7],[33.7,39.6],[34.1,39.8],[34.0,40.1],[33.5,40.3],[33.0,40.0],[33.1,39.7]]]}},
{"type":"Feature","properties":{"name":"Batman","plate":72},"geometry":{"type":"Polygon","coordinates":[[[41.0,37.5],[41.8,37.4],[42.3,37.7],[42.2,38.1],[41.6,38.3],[41.0,38.0],[41.0,37.5]]]}},
{"type":"Feature","properties":{"name":"Şırnak","plate":73},"geometry":{"type":"Polygon","coordinates":[[[42.0,37.0],[43.0,36.9],[43.6,37.2],[43.5,37.7],[42.8,37.9],[42.0,37.6],[42.0,37.0]]]}},
{"type":"Feature","properties":{"name":"Bartın","plate":74},"geometry":{"type":"Polygon","coordinates":[[[32.2,41.4],[32.7,41.3],[33.0,41.5],[32.9,41.8],[32.4,41.9],[32.1,41.6],[32.2,41.4]]]}},
{"type":"Feature","properties":{"name":"Ardahan","plate":75},"geometry":{"type":"Polygon","coordinates":[[[42.5,40.7],[43.2,40.6],[43.7,40.9],[43.6,41.3],[43.0,41.5],[42.4,41.2],[42.5,40.7]]]}},
{"type":"Feature","properties":{"name":"Iğdır","plate":76},"geometry":{"type":"Polygon","coordinates":[[[43.8,39.6],[44.5,39.5],[45.0,39.8],[44.9,40.2],[44.2,40.4],[43.7,40.0],[43.8,39.6]]]}},
{"type":"Feature","properties":{"name":"Yalova","plate":77},"geometry":{"type":"Polygon","coordinates":[[[28.9,40.5],[29.4,40.4],[29.6,40.6],[29.5,40.9],[29.1,41.0],[28.8,40.8],[28.9,40.5]]]}},
{"type":"Feature","properties":{"name":"Karabük","plate":78},"geometry":{"type":"Polygon","coordinates":[[[32.4,41.0],[33.0,40.9],[33.5,41.1],[33.4,41.5],[32.8,41.6],[32.3,41.3],[32.4,41.0]]]}},
{"type":"Feature","properties":{"name":"Kilis","plate":79},"geometry":{"type":"Polygon","coordinates":[[[36.8,36.5],[37.3,36.4],[37.6,36.7],[37.5,36.9],[37.0,37.0],[36.7,36.8],[36.8,36.5]]]}},
{"type":"Feature","properties":{"name":"Osmaniye","plate":80},"geometry":{"type":"Polygon","coordinates":[[[36.0,37.0],[36.7,36.9],[37.2,37.2],[37.1,37.6],[36.5,37.8],[36.0,37.4],[36.0,37.0]]]}},
{"type":"Feature","properties":{"name":"Düzce","plate":81},"geometry":{"type":"Polygon","coordinates":[[[30.8,40.7],[31.4,40.6],[31.8,40.8],[31.7,41.1],[31.2,41.2],[30.7,41.0],[30.8,40.7]]]}}
]}
